
    "type": "FeatureCollection",
    "features": [
      {
        "type": "Feature",
        "properties": {},
        "geometry": {
          "type": "Polygon",
          "coordinates": [
            [
              [17.075635647196975, -22.56479831789781],
              [17.07564609494642, -22.563951858295383],
              [17.074808607358506, -22.564056368990975],
              [17.07387303563749, -22.565150242843416],
              [17.0724319533916, -22.565791234953593],
              [17.071277578607635, -22.56632074792803],
              [17.070907876879716, -22.56687812780872],
              [17.071617100603305, -22.567602718285556],
              [17.072997823383815, -22.566899029510395],
              [17.074295551898217, -22.56630681340242],
              [17.074255135088153, -22.5663489090146]
            ]
          ]
        }
      }
    ]
  }
  